EUTELSAT 21B            
1 38992U 12062B   26001.61052453  .00000141  00000+0  00000+0 0  9991
2 38992   0.0651   6.3360 0003218 282.8758  53.4546  1.00274476 48153
EUTELSAT 70B            
1 39020U 12069A   26001.76289394 -.00000033  00000+0  00000+0 0  9994
2 39020   0.0606   5.5927 0003922 256.2733 184.6768  1.00271457 47840
EUTELSAT 117 WEST A     
1 39122U 13012A   26001.68239304 -.00000002  00000+0  00000+0 0  9999
2 39122   0.0122  23.1793 0003161 263.3559 303.6516  1.00271370 46761
EUTELSAT 7B             
1 39163U 13022A   26001.82165431  .00000058  00000+0  00000+0 0  9990
2 39163   0.0662 349.9047 0005234 333.7152  80.6384  1.00269511 46275
EXPRESS-AT1             
1 39612U 14010A   25365.17405959  .00000096  00000+0  00000+0 0  9991
2 39612   0.0155 332.8910 0000364 240.5228   5.0927  1.00268913 43130
EXPRESS-AT2             
1 39613U 14010B   26001.84791448 -.00000271  00000+0  00000+0 0  9991
2 39613   0.0155 335.0575 0001720 297.8358 273.7013  1.00270658 42834
EUTELSAT 3B             
1 39773U 14030A   26001.82087431  .00000030  00000+0  00000+0 0  9990
2 39773   0.0609   9.0937 0004301 233.1013 157.8694  1.00271380 42395
EUTELSAT 115 WEST B     
1 40425U 15010B   26001.48655590 -.00000014  00000+0  00000+0 0  9997
2 40425   0.0108 158.5206 0000353 286.0322  76.8561  1.00274958 39727
